start=new Date('2022-04-15T00:00:00.000Z').valueOf();
sats=[{"NORAD_CAT_ID":"48405","INCLINATION":"53.0527","MEAN_MOTION_DDOT":"0.0000000000000","MEAN_ANOMALY":"311.0280","OBJECT_ID":"2021-038BE","OBJECT_NAME":"STARLINK-2570","RA_OF_ASC_NODE":"258.5156","MEAN_MOTION":"15.06407053","FILE":"3401977","SITE":"AFETR","TLE_LINE2":"2 48405  53.0527 258.5156 0001660  49.0852 311.0280 15.06407053 52539","ARG_OF_PERICENTER":"49.0852","LAUNCH_DATE":"2021-05-04","CENTER_NAME":"EARTH","GP_ID":"201256939","RCS_SIZE":"LARGE","MEAN_MOTION_DOT":"0.00007670","REF_FRAME":"TEME","TLE_LINE1":"1 48405U 21038BE  22104.73050407  .00007670  00000-0  53315-3 0  9990","REV_AT_EPOCH":"5253","COUNTRY_CODE":"US","BSTAR":"0.00053315000000","DECAY_DATE":null,"PERIAPSIS":"546.042","PERIOD":"95.592","TIME_SYSTEM":"UTC","EPHEMERIS_TYPE":"0","ELEMENT_SET_NO":"999","ECCENTRICITY":"0.00016600","SEMIMAJOR_AXIS":"6925.327","MEAN_ELEMENT_THEORY":"SGP4","APOAPSIS":"548.342","CLASSIFICATION_TYPE":"U","OBJECT_TYPE":"PAYLOAD","EPOCH":"2022-04-14T17:31:55.551648"},{"MEAN_MOTION_DDOT":"0.0000000000000","INCLINATION":"53.0564","NORAD_CAT_ID":"48406","MEAN_ANOMALY":"316.5478","OBJECT_ID":"2021-038BF","RA_OF_ASC_NODE":"258.5306","OBJECT_NAME":"STARLINK-2568","MEAN_MOTION":"15.06398421","ARG_OF_PERICENTER":"43.5654","TLE_LINE2":"2 48406  53.0564 258.5306 0001813  43.5654 316.5478 15.06398421 53120","SITE":"AFETR","FILE":"3401745","LAUNCH_DATE":"2021-05-04","RCS_SIZE":"LARGE","CENTER_NAME":"EARTH","GP_ID":"201231232","REF_FRAME":"TEME","MEAN_MOTION_DOT":"0.00003521","BSTAR":"0.00025516000000","COUNTRY_CODE":"US","REV_AT_EPOCH":"5312","TLE_LINE1":"1 48406U 21038BF  22104.72681312  .00003521  00000-0  25516-3 0  9998","PERIAPSIS":"545.963","DECAY_DATE":null,"EPHEMERIS_TYPE":"0","TIME_SYSTEM":"UTC","PERIOD":"95.592","ECCENTRICITY":"0.00018130","ELEMENT_SET_NO":"999","APOAPSIS":"548.474","MEAN_ELEMENT_THEORY":"SGP4","SEMIMAJOR_AXIS":"6925.353","CLASSIFICATION_TYPE":"U","EPOCH":"2022-04-14T17:26:36.653568","OBJECT_TYPE":"PAYLOAD"},{"DECAY_DATE":null,"PERIAPSIS":"546.103","TLE_LINE1":"1 48407U 21038BG  22104.72312088 -.00002077  00000-0 -12059-3 0  9995","BSTAR":"-0.00012059000000","COUNTRY_CODE":"US","REV_AT_EPOCH":"5311","ECCENTRICITY":"0.00015990","ELEMENT_SET_NO":"999","PERIOD":"95.592","TIME_SYSTEM":"UTC","EPHEMERIS_TYPE":"0","CLASSIFICATION_TYPE":"U","SEMIMAJOR_AXIS":"6925.346","APOAPSIS":"548.318","MEAN_ELEMENT_THEORY":"SGP4","OBJECT_TYPE":"PAYLOAD","EPOCH":"2022-04-14T17:21:17.644032","MEAN_ANOMALY":"311.8348","NORAD_CAT_ID":"48407","INCLINATION":"53.0533","MEAN_MOTION_DDOT":"0.0000000000000","MEAN_MOTION":"15.06400918","OBJECT_NAME":"STARLINK-2595","RA_OF_ASC_NODE":"258.5287","OBJECT_ID":"2021-038BG","LAUNCH_DATE":"2021-05-04","FILE":"3401746","SITE":"AFETR","ARG_OF_PERICENTER":"48.2777","TLE_LINE2":"2 48407  53.0533 258.5287 0001599  48.2777 311.8348 15.06400918 53112","MEAN_MOTION_DOT":"-0.00002077","REF_FRAME":"TEME","GP_ID":"201231240","CENTER_NAME":"EARTH","RCS_SIZE":"LARGE"},{"LAUNCH_DATE":"2021-05-04","FILE":"3401977","SITE":"AFETR","ARG_OF_PERICENTER":"64.8492","TLE_LINE2":"2 48408  53.0546 258.5542 0001435  64.8492 295.2646 15.06398637 52522","MEAN_MOTION_DOT":"0.00001424","REF_FRAME":"TEME","CENTER_NAME":"EARTH","GP_ID":"201256689","RCS_SIZE":"LARGE","MEAN_ANOMALY":"295.2646","NORAD_CAT_ID":"48408","INCLINATION":"53.0546","MEAN_MOTION_DDOT":"0.0000000000000","OBJECT_NAME":"STARLINK-2592","MEAN_MOTION":"15.06398637","RA_OF_ASC_NODE":"258.5542","OBJECT_ID":"2021-038BH","CLASSIFICATION_TYPE":"U","SEMIMAJOR_AXIS":"6925.353","MEAN_ELEMENT_THEORY":"SGP4","APOAPSIS":"548.212","OBJECT_TYPE":"PAYLOAD","EPOCH":"2022-04-14T17:15:59.450112","DECAY_DATE":null,"PERIAPSIS":"546.224","TLE_LINE1":"1 48408U 21038BH  22104.71943808  .00001424  00000-0  11448-3 0  9999","BSTAR":"0.00011448000000","COUNTRY_CODE":"US","REV_AT_EPOCH":"5252","ECCENTRICITY":"0.00014350","ELEMENT_SET_NO":"999","PERIOD":"95.592","TIME_SYSTEM":"UTC","EPHEMERIS_TYPE":"0"},{"MEAN_MOTION_DDOT":"0.0000000000000","INCLINATION":"53.0562","NORAD_CAT_ID":"48409","MEAN_ANOMALY":"319.6943","OBJECT_ID":"2021-038BJ","RA_OF_ASC_NODE":"263.4589","OBJECT_NAME":"STARLINK-2596","MEAN_MOTION":"15.06447185","ARG_OF_PERICENTER":"40.4166","TLE_LINE2":"2 48409  53.0562 263.4589 0001611  40.4166 319.6943 15.06447185 53054","SITE":"AFETR","FILE":"3401747","LAUNCH_DATE":"2021-05-04","RCS_SIZE":"LARGE","CENTER_NAME":"EARTH","GP_ID":"201231252","REF_FRAME":"TEME","MEAN_MOTION_DOT":"-0.00010730","COUNTRY_CODE":"US","REV_AT_EPOCH":"5305","BSTAR":"-0.00070162000000","TLE_LINE1":"1 48409U 21038BJ  22104.74291447 -.00010730  00000-0 -70162-3 0  9998","PERIAPSIS":"545.953","DECAY_DATE":null,"EPHEMERIS_TYPE":"0","TIME_SYSTEM":"UTC","PERIOD":"95.589","ELEMENT_SET_NO":"999","ECCENTRICITY":"0.00016110","APOAPSIS":"548.185","MEAN_ELEMENT_THEORY":"SGP4","SEMIMAJOR_AXIS":"6925.204","CLASSIFICATION_TYPE":"U","EPOCH":"2022-04-14T17:49:47.810208","OBJECT_TYPE":"PAYLOAD"},{"EPOCH":"2022-04-14T22:00:00.999936","OBJECT_TYPE":"PAYLOAD","CLASSIFICATION_TYPE":"U","MEAN_ELEMENT_THEORY":"SGP4","APOAPSIS":"548.427","SEMIMAJOR_AXIS":"6925.341","ELEMENT_SET_NO":"999","ECCENTRICITY":"0.00017640","EPHEMERIS_TYPE":"0","TIME_SYSTEM":"UTC","PERIOD":"95.592","PERIAPSIS":"545.984","DECAY_DATE":null,"BSTAR":"-0.00214810000000","COUNTRY_CODE":"US","REV_AT_EPOCH":"360","TLE_LINE1":"1 48410U 21038BK  22104.91667824 -.00032136  00000-0 -21481-2 0  9998","REF_FRAME":"TEME","MEAN_MOTION_DOT":"-0.00032136","RCS_SIZE":"LARGE","GP_ID":"201255688","CENTER_NAME":"EARTH","LAUNCH_DATE":"2021-05-04","TLE_LINE2":"2 48410  53.0535 212.6821 0001764  42.0133 155.8299 15.06402571  3602","ARG_OF_PERICENTER":"42.0133","SITE":"AFETR","FILE":"3401977","RA_OF_ASC_NODE":"212.6821","OBJECT_NAME":"STARLINK-2563","MEAN_MOTION":"15.06402571","OBJECT_ID":"2021-038BK","MEAN_ANOMALY":"155.8299","MEAN_MOTION_DDOT":"0.0000000000000","INCLINATION":"53.0535","NORAD_CAT_ID":"48410"},{"SEMIMAJOR_AXIS":"6925.357","APOAPSIS":"548.449","MEAN_ELEMENT_THEORY":"SGP4","CLASSIFICATION_TYPE":"U","OBJECT_TYPE":"PAYLOAD","EPOCH":"2022-04-14T22:00:00.999936","TLE_LINE1":"1 48411U 21038BL  22104.91667824 -.00025375  00000-0 -16908-2 0  9994","REV_AT_EPOCH":"5384","COUNTRY_CODE":"US","BSTAR":"-0.00169080000000","DECAY_DATE":null,"PERIAPSIS":"545.996","PERIOD":"95.592","TIME_SYSTEM":"UTC","EPHEMERIS_TYPE":"0","ECCENTRICITY":"0.00017710","ELEMENT_SET_NO":"999","FILE":"3401747","SITE":"AFETR","ARG_OF_PERICENTER":"45.7831","TLE_LINE2":"2 48411  53.0540 207.6780 0001771  45.7831  59.5406 15.06397215 53849","LAUNCH_DATE":"2021-05-04","CENTER_NAME":"EARTH","GP_ID":"201231751","RCS_SIZE":"LARGE","MEAN_MOTION_DOT":"-0.00025375","REF_FRAME":"TEME","NORAD_CAT_ID":"48411","INCLINATION":"53.0540","MEAN_MOTION_DDOT":"0.0000000000000","MEAN_ANOMALY":"59.5406","OBJECT_ID":"2021-038BL","RA_OF_ASC_NODE":"207.6780","OBJECT_NAME":"STARLINK-2505","MEAN_MOTION":"15.06397215"},{"TLE_LINE1":"1 48412U 21038BM  22104.91667824 -.00036704  00000-0 -24579-2 0  9996","REV_AT_EPOCH":"5384","COUNTRY_CODE":"US","BSTAR":"-0.00245790000000","PERIAPSIS":"545.975","DECAY_DATE":null,"EPHEMERIS_TYPE":"0","PERIOD":"95.592","TIME_SYSTEM":"UTC","ELEMENT_SET_NO":"999","ECCENTRICITY":"0.00017910","APOAPSIS":"548.456","MEAN_ELEMENT_THEORY":"SGP4","SEMIMAJOR_AXIS":"6925.351","CLASSIFICATION_TYPE":"U","OBJECT_TYPE":"PAYLOAD","EPOCH":"2022-04-14T22:00:00.999936","MEAN_MOTION_DDOT":"0.0000000000000","NORAD_CAT_ID":"48412","INCLINATION":"53.0532","MEAN_ANOMALY":"188.4822","OBJECT_ID":"2021-038BM","OBJECT_NAME":"STARLINK-2581","MEAN_MOTION":"15.06399284","RA_OF_ASC_NODE":"207.6778","SITE":"AFETR","ARG_OF_PERICENTER":"41.9857","TLE_LINE2":"2 48412  53.0532 207.6778 0001791  41.9857 188.4822 15.06399284 53848","FILE":"3401747","LAUNCH_DATE":"2021-05-04","RCS_SIZE":"LARGE","CENTER_NAME":"EARTH","GP_ID":"201231259","REF_FRAME":"TEME","MEAN_MOTION_DOT":"-0.00036704"},{"RCS_SIZE":"LARGE","CENTER_NAME":"EARTH","GP_ID":"201256691","REF_FRAME":"TEME","MEAN_MOTION_DOT":"0.00001096","SITE":"AFETR","TLE_LINE2":"2 48428  53.0557 103.5371 0001650  50.8806 309.2330 15.06401131 51785","ARG_OF_PERICENTER":"50.8806","FILE":"3401977","LAUNCH_DATE":"2021-05-09","OBJECT_ID":"2021-040A","RA_OF_ASC_NODE":"103.5371","OBJECT_NAME":"STARLINK-2461","MEAN_MOTION":"15.06401131","MEAN_MOTION_DDOT":"0.0000000000000","NORAD_CAT_ID":"48428","INCLINATION":"53.0557","MEAN_ANOMALY":"309.2330","OBJECT_TYPE":"PAYLOAD","EPOCH":"2022-04-14T17:23:17.086848","MEAN_ELEMENT_THEORY":"SGP4","APOAPSIS":"548.353","SEMIMAJOR_AXIS":"6925.345","CLASSIFICATION_TYPE":"U","EPHEMERIS_TYPE":"0","PERIOD":"95.592","TIME_SYSTEM":"UTC","ELEMENT_SET_NO":"999","ECCENTRICITY":"0.00016500","TLE_LINE1":"1 48428U 21040A   22104.72450332  .00001096  00000-0  92439-4 0  9995","BSTAR":"0.00009243900000","COUNTRY_CODE":"US","REV_AT_EPOCH":"5178","PERIAPSIS":"546.067","DECAY_DATE":null},{"TLE_LINE1":"1 48429U 21040B   22104.91667824 -.00001921  00000-0 -11012-3 0  9999","BSTAR":"-0.00011012000000","COUNTRY_CODE":"US","REV_AT_EPOCH":"360","DECAY_DATE":null,"PERIAPSIS":"546.227","PERIOD":"95.593","TIME_SYSTEM":"UTC","EPHEMERIS_TYPE":"0","ECCENTRICITY":"0.00014630","ELEMENT_SET_NO":"999","SEMIMAJOR_AXIS":"6925.375","MEAN_ELEMENT_THEORY":"SGP4","APOAPSIS":"548.254","CLASSIFICATION_TYPE":"U","OBJECT_TYPE":"PAYLOAD","EPOCH":"2022-04-14T22:00:00.999936","NORAD_CAT_ID":"48429","INCLINATION":"53.0548","MEAN_MOTION_DDOT":"0.0000000000000","MEAN_ANOMALY":"67.2759","OBJECT_ID":"2021-040B","OBJECT_NAME":"STARLINK-2749","RA_OF_ASC_NODE":"72.6792","MEAN_MOTION":"15.06391225","FILE":"3401977","SITE":"AFETR","TLE_LINE2":"2 48429  53.0548  72.6792 0001463  65.7158  67.2759 15.06391225  3602","ARG_OF_PERICENTER":"65.7158","LAUNCH_DATE":"2021-05-09","CENTER_NAME":"EARTH","GP_ID":"201257436","RCS_SIZE":"LARGE","MEAN_MOTION_DOT":"-0.00001921","REF_FRAME":"TEME"}];
